[
    {
        "Altitude(m)": 717707.2383231937,
        "Argument of Periapsis(deg)": 0.0011390121186627068,
        "Eccentricity": 0.0,
        "Inclination(deg)": 45.0,
        "Latitude(deg)": -44.72681590933892,
        "Longitude(deg)": 155.07991956192308,
        "Mean Anomaly(deg)": -97.02847833525195,
        "RAAN(deg)": 354.9989248058542,
        "Satellite Name": "Constellation 1 1578",
        "Satellite Number": 1578,
        "Semi-Major Axis(m)": 7083131.272910544,
        "Time(s)": 19
    },
    {
        "Altitude(m)": 717710.247108103,
        "Argument of Periapsis(deg)": 0.0011989601249081123,
        "Eccentricity": 0.0,
        "Inclination(deg)": 45.0,
        "Latitude(deg)": -44.73413613223143,
        "Longitude(deg)": 155.16020076231302,
        "Mean Anomaly(deg)": -96.96777719500196,
        "RAAN(deg)": 354.9988682166886,
        "Satellite Name": "Constellation 1 1578",
        "Satellite Number": 1578,
        "Semi-Major Axis(m)": 7083131.272910544,
        "Time(s)": 20
    },
    {
        "Altitude(m)": 717713.2301235382,
        "Argument of Periapsis(deg)": 0.001258908131153518,
        "Eccentricity": 0.0,
        "Inclination(deg)": 45.0,
        "Latitude(deg)": -44.74139399596112,
        "Longitude(deg)": 155.24050312017377,
        "Mean Anomaly(deg)": -96.90707605475212,
        "RAAN(deg)": 354.998811627523,
        "Satellite Name": "Constellation 1 1578",
        "Satellite Number": 1578,
        "Semi-Major Axis(m)": 7083131.272910544,
        "Time(s)": 21
    },
    {
        "Altitude(m)": 717716.1873584708,
        "Argument of Periapsis(deg)": 0.0013188561373989236,
        "Eccentricity": 0.0,
        "Inclination(deg)": 45.0,
        "Latitude(deg)": -44.74858946951524,
        "Longitude(deg)": 155.32082629694412,
        "Mean Anomaly(deg)": -96.84637491450229,
        "RAAN(deg)": 354.9987550383575,
        "Satellite Name": "Constellation 1 1578",
        "Satellite Number": 1578,
        "Semi-Major Axis(m)": 7083131.272910544,
        "Time(s)": 22
    },
    {
        "Altitude(m)": 717719.1188019626,
        "Argument of Periapsis(deg)": 0.0013788041436443293,
        "Eccentricity": 0.0,
        "Inclination(deg)": 45.0,
        "Latitude(deg)": -44.755722522129176,
        "Longitude(deg)": 155.40117045799738,
        "Mean Anomaly(deg)": -96.78567377425236,
        "RAAN(deg)": 354.9986984491919,
        "Satellite Name": "Constellation 1 1578",
        "Satellite Number": 1578,
        "Semi-Major Axis(m)": 7083131.272910544,
        "Time(s)": 23
    },
    {
        "Altitude(m)": 717722.0244431838,
        "Argument of Periapsis(deg)": 0.001438752149889735,
        "Eccentricity": 0.0,
        "Inclination(deg)": 45.0,
        "Latitude(deg)": -44.76279312328542,
        "Longitude(deg)": 155.48153526406205,
        "Mean Anomaly(deg)": -96.7249726340024,
        "RAAN(deg)": 354.9986418600263,
        "Satellite Name": "Constellation 1 1578",
        "Satellite Number": 1578,
        "Semi-Major Axis(m)": 7083131.272910544,
        "Time(s)": 24
    },
    {
        "Altitude(m)": 717724.9042713776,
        "Argument of Periapsis(deg)": 0.0014987001561351404,
        "Eccentricity": 0.0,
        "Inclination(deg)": 45.0,
        "Latitude(deg)": -44.76980124271543,
        "Longitude(deg)": 155.56192054361316,
        "Mean Anomaly(deg)": -96.66427149375257,
        "RAAN(deg)": 354.99858527086076,
        "Satellite Name": "Constellation 1 1578",
        "Satellite Number": 1578,
        "Semi-Major Axis(m)": 7083131.272910544,
        "Time(s)": 25
    },
    {
        "Altitude(m)": 717727.7582759024,
        "Argument of Periapsis(deg)": 0.001558648162380546,
        "Eccentricity": 0.0,
        "Inclination(deg)": 45.0,
        "Latitude(deg)": -44.776746850399775,
        "Longitude(deg)": 155.64232612477718,
        "Mean Anomaly(deg)": -96.60357035350263,
        "RAAN(deg)": 354.9985286816952,
        "Satellite Name": "Constellation 1 1578",
        "Satellite Number": 1578,
        "Semi-Major Axis(m)": 7083131.272910544,
        "Time(s)": 26
    },
    {
        "Altitude(m)": 717730.586446205,
        "Argument of Periapsis(deg)": 0.0016185961686259519,
        "Eccentricity": 0.0,
        "Inclination(deg)": 45.0,
        "Latitude(deg)": -44.78362991656887,
        "Longitude(deg)": 155.72275183533446,
        "Mean Anomaly(deg)": -96.5428692132527,
        "RAAN(deg)": 354.99847209252965,
        "Satellite Name": "Constellation 1 1578",
        "Satellite Number": 1578,
        "Semi-Major Axis(m)": 7083131.272910544,
        "Time(s)": 27
    },
    {
        "Altitude(m)": 717733.3887718249,
        "Argument of Periapsis(deg)": 0.0016785441748713573,
        "Eccentricity": 0.0,
        "Inclination(deg)": 45.0,
        "Latitude(deg)": -44.79045041170345,
        "Longitude(deg)": 155.80319750272224,
        "Mean Anomaly(deg)": -96.48216807300281,
        "RAAN(deg)": 354.9984155033641,
        "Satellite Name": "Constellation 1 1578",
        "Satellite Number": 1578,
        "Semi-Major Axis(m)": 7083131.272910544,
        "Time(s)": 28
    },
    {
        "Altitude(m)": 717736.1652423968,
        "Argument of Periapsis(deg)": 0.001738492181116763,
        "Eccentricity": 0.0,
        "Inclination(deg)": 45.0,
        "Latitude(deg)": -44.7972083065353,
        "Longitude(deg)": 155.88366295403745,
        "Mean Anomaly(deg)": -96.42146693275298,
        "RAAN(deg)": 354.99835891419855,
        "Satellite Name": "Constellation 1 1578",
        "Satellite Number": 1578,
        "Semi-Major Axis(m)": 7083131.272910544,
        "Time(s)": 29
    },
    {
        "Altitude(m)": 717738.9158476563,
        "Argument of Periapsis(deg)": 0.0017984401873621684,
        "Eccentricity": 0.0,
        "Inclination(deg)": 45.0,
        "Latitude(deg)": -44.80390357204751,
        "Longitude(deg)": 155.96414784794226,
        "Mean Anomaly(deg)": -96.36076579250299,
        "RAAN(deg)": 354.9983023250329,
        "Satellite Name": "Constellation 1 1578",
        "Satellite Number": 1578,
        "Semi-Major Axis(m)": 7083131.272910544,
        "Time(s)": 30
    },
    {
        "Altitude(m)": 717741.640577428,
        "Argument of Periapsis(deg)": 0.0018583881936075745,
        "Eccentricity": 0.0,
        "Inclination(deg)": 45.0,
        "Latitude(deg)": -44.810536179476,
        "Longitude(deg)": 156.04465234705376,
        "Mean Anomaly(deg)": -96.3000646522531,
        "RAAN(deg)": 354.99824573586733,
        "Satellite Name": "Constellation 1 1578",
        "Satellite Number": 1578,
        "Semi-Major Axis(m)": 7083131.272910544,
        "Time(s)": 31
    },
    {
        "Altitude(m)": 717744.3394216348,
        "Argument of Periapsis(deg)": 0.0019183361998529795,
        "Eccentricity": 0.0,
        "Inclination(deg)": 45.0,
        "Latitude(deg)": -44.8171061003088,
        "Longitude(deg)": 156.12517610936615,
        "Mean Anomaly(deg)": -96.23936351200327,
        "RAAN(deg)": 354.9981891467018,
        "Satellite Name": "Constellation 1 1578",
        "Satellite Number": 1578,
        "Semi-Major Axis(m)": 7083131.272910544,
        "Time(s)": 32
    },
    {
        "Altitude(m)": 717747.0123702942,
        "Argument of Periapsis(deg)": 0.0019782842060983856,
        "Eccentricity": 0.0,
        "Inclination(deg)": 45.0,
        "Latitude(deg)": -44.823613306287434,
        "Longitude(deg)": 156.20571896064095,
        "Mean Anomaly(deg)": -96.17866237175333,
        "RAAN(deg)": 354.9981325575362,
        "Satellite Name": "Constellation 1 1578",
        "Satellite Number": 1578,
        "Semi-Major Axis(m)": 7083131.272910544,
        "Time(s)": 33
    },
    {
        "Altitude(m)": 717749.6594135221,
        "Argument of Periapsis(deg)": 0.0020382322123437906,
        "Eccentricity": 0.0,
        "Inclination(deg)": 45.0,
        "Latitude(deg)": -44.8300577694073,
        "Longitude(deg)": 156.286280726312,
        "Mean Anomaly(deg)": -96.1179612315034,
        "RAAN(deg)": 354.9980759683707,
        "Satellite Name": "Constellation 1 1578",
        "Satellite Number": 1578,
        "Semi-Major Axis(m)": 7083131.272910544,
        "Time(s)": 34
    },
    {
        "Altitude(m)": 717752.2805415258,
        "Argument of Periapsis(deg)": 0.002098180218589197,
        "Eccentricity": 0.0,
        "Inclination(deg)": 45.0,
        "Latitude(deg)": -44.836439461918204,
        "Longitude(deg)": 156.36686123148849,
        "Mean Anomaly(deg)": -96.05726009125357,
        "RAAN(deg)": 354.99801937920506,
        "Satellite Name": "Constellation 1 1578",
        "Satellite Number": 1578,
        "Semi-Major Axis(m)": 7083131.272910544,
        "Time(s)": 35
    },
    {
        "Altitude(m)": 717754.8757446107,
        "Argument of Periapsis(deg)": 0.002158128224834602,
        "Eccentricity": 0.0,
        "Inclination(deg)": 45.0,
        "Latitude(deg)": -44.84275835632503,
        "Longitude(deg)": 156.44746030095868,
        "Mean Anomaly(deg)": -95.99655895100362,
        "RAAN(deg)": 354.9979627900395,
        "Satellite Name": "Constellation 1 1578",
        "Satellite Number": 1578,
        "Semi-Major Axis(m)": 7083131.272910544,
        "Time(s)": 36
    },
    {
        "Altitude(m)": 717757.4450131751,
        "Argument of Periapsis(deg)": 0.002218076231080008,
        "Eccentricity": 0.0,
        "Inclination(deg)": 45.0,
        "Latitude(deg)": -44.84901442538795,
        "Longitude(deg)": 156.52807759109442,
        "Mean Anomaly(deg)": -95.93585781075369,
        "RAAN(deg)": 354.99790620087396,
        "Satellite Name": "Constellation 1 1578",
        "Satellite Number": 1578,
        "Semi-Major Axis(m)": 7083131.272910544,
        "Time(s)": 37
    }
]